SL-16 R/B               
1 25400U 98043G   26004.81234110  .00000120  00000+0  69332-4 0  9996
2 25400  98.8156 317.7633 0009501 194.0746 166.0170 14.26032216429885
SL-16 R/B               
1 25407U 98045B   26004.86194343 -.00000126  00000+0 -39616-4 0  9993
2 25407  71.0127 315.8008 0005488 137.2787 222.8764 14.16181617418069
ISS (ZARYA)             
1 25544U 98067A   26004.50044739  .00010369  00000+0  19540-3 0  9994
2 25544  51.6325  29.7776 0007570 339.7319  20.3368 15.49089728546387
CZ-4B R/B               
1 25732U 99025C   26004.75886096  .00000135  00000+0  85766-4 0  9999
2 25732  98.6735  50.5202 0037352 167.3760 307.8047 14.18250221379108
OKEAN-O                 
1 25860U 99039A   26004.77368506  .00001214  00000+0  16656-3 0  9999
2 25860  97.9568  65.2728 0001377 113.0383 247.0974 14.80209503424931
SL-16 R/B               
1 25861U 99039B   26004.74669267  .00001036  00000+0  13840-3 0  9999
2 25861  98.0091  63.8957 0016105 103.9019 256.3986 14.81627304427395
DELTA 2 R/B             
1 25876U 99041E   26004.79656409  .00002582  00000+0  45323-3 0  9995
2 25876  51.7589 196.4005 0504074 159.7295 202.4457 14.11492404354004
HELIOS 1B               
1 25977U 99064A   26004.67711528  .00003078  00000+0  34675-3 0  9992
2 25977  98.1752 265.0238 0000417  55.9675 304.1580 14.87399020675742
TERRA                   
1 25994U 99068A   26004.81651422  .00000807  00000+0  17395-3 0  9994
2 25994  97.9715  60.6503 0002996  47.4159  18.3115 14.60933650385759
SL-16 R/B               
1 26070U 00006B   26004.86075937  .00000141  00000+0  96009-4 0  9991
2 26070  71.0017 232.0442 0018904 277.5984  82.2992 14.15815350339521
TITAN 4B R/B            
1 26474U 00047B   26004.81142670  .00004532  00000+0  28987-3 0  9995
2 26474  67.9877 220.0506 0037401 116.3215 244.1783 15.08979049383272
ENVISAT                 
1 27386U 02009A   25365.95019499  .00000264  00000+0  99422-4 0  9995
2 27386  98.3626 316.2065 0001107  88.1807 295.1197 14.39007536249430
